{"type": "FeatureCollection", "features": [ {"type": "Feature", "properties": {"norad_id": 32289, "name": "YAOGAN-3", "group": "resource", "lat": 70.7262355953472, "lon": -135.09459145490484, "alt_km": 590.7937865145095, "timestamp": "2025-12-21T03:56:50.511212+00:00", "meta": {"OBJECT_NAME": "YAOGAN-3", "OBJECT_ID": "2007-055A", "EPOCH": "2025-12-20T21:01:07.360032", "MEAN_MOTION": 14.89890855, "ECCENTRICITY": 0.0001122, "INCLINATION": 97.8355, "RA_OF_ASC_NODE": 21.4276, "ARG_OF_PERICENTER": 74.3252, "MEAN_ANOMALY": 285.8089, "EPHEMERIS_TYPE": 0, "CLASSIFICATION_TYPE": "U", "NORAD_CAT_ID": 32289, "ELEMENT_SET_NO": 999, "REV_AT_EPOCH": 97930, "BSTAR": 0.00010902, "MEAN_MOTION_DOT": 9.93e-06, "MEAN_MOTION_DDOT": 0}, "tle": {"line1": "1 32289U 07055A   25354.87577963  .00000993  00000+0  10902-3 0  9997", "line2": "2 32289  97.8355  21.4276 0001122  74.3252 285.8089 14.89890855979309"}}, "geometry": {"type": "Point", "coordinates": [-135.09459145490484, 70.7262355953472]}}, {"type": "Feature", "properties": {"norad_id": 32376, "name": "COSMO-SKYMED 2", "group": "resource", "lat": 26.874572768669537, "lon": 0.3862502141881432, "alt_km": 621.2295760135012, "timestamp": "2025-12-21T03:56:50.511231+00:00", "meta": {"OBJECT_NAME": "COSMO-SKYMED 2", "OBJECT_ID": "2007-059A", "EPOCH": "2025-12-20T19:09:33.479424", "MEAN_MOTION": 14.82151529, "ECCENTRICITY": 0.0001348, "INCLINATION": 97.8804, "RA_OF_ASC_NODE": 176.0008, "ARG_OF_PERICENTER": 83.242, "MEAN_ANOMALY": 276.8946, "EPHEMERIS_TYPE": 0, "CLASSIFICATION_TYPE": "U", "NORAD_CAT_ID": 32376, "ELEMENT_SET_NO": 999, "REV_AT_EPOCH": 97557, "BSTAR": 4.8882e-05, "MEAN_MOTION_DOT": 3.37e-06, "MEAN_MOTION_DDOT": 0}, "tle": {"line1": "1 32376U 07059A   25354.79830416  .00000337  00000+0  48882-4 0  9995", "line2": "2 32376  97.8804 176.0008 0001348  83.2420 276.8946 14.82151529975579"}}, "geometry": {"type": "Point", "coordinates": [0.3862502141881432, 26.874572768669537]}}, {"type": "Feature", "properties": {"norad_id": 32382, "name": "RADARSAT-2", "group": "resource", "lat": -37.5409245753959, "lon": 6.293656905416639, "alt_km": 798.5722795723677, "timestamp": "2025-12-21T03:56:50.511244+00:00", "meta": {"OBJECT_NAME": "RADARSAT-2", "OBJECT_ID": "2007-061A", "EPOCH": "2025-12-20T19:43:42.295584", "MEAN_MOTION": 14.29983305, "ECCENTRICITY": 0.0001137, "INCLINATION": 98.579, "RA_OF_ASC_NODE": 359.2946, "ARG_OF_PERICENTER": 85.0302, "MEAN_ANOMALY": 275.101, "EPHEMERIS_TYPE": 0, "CLASSIFICATION_TYPE": "U", "NORAD_CAT_ID": 32382, "ELEMENT_SET_NO": 999, "REV_AT_EPOCH": 94046, "BSTAR": -3.9084e-05, "MEAN_MOTION_DOT": -1.44e-06, "MEAN_MOTION_DDOT": 0}, "tle": {"line1": "1 32382U 07061A   25354.82201731 -.00000144  00000+0 -39084-4 0  9993", "line2": "2 32382  98.5790 359.2946 0001137  85.0302 275.1010 14.29983305940469"}}, "geometry": {"type": "Point", "coordinates": [6.293656905416639, -37.5409245753959]}}, {"type": "Feature", "properties": {"norad_id": 32783, "name": "CARTOSAT-2A", "group": "resource", "lat": -15.114965127937023, "lon": -137.39468751850143, "alt_km": 643.6098998201878, "timestamp": "2025-12-21T03:56:50.511253+00:00", "meta": {"OBJECT_NAME": "CARTOSAT-2A", "OBJECT_ID": "2008-021A", "EPOCH": "2025-12-20T20:34:19.640928", "MEAN_MOTION": 14.78950833, "ECCENTRICITY": 0.0011228, "INCLINATION": 97.7922, "RA_OF_ASC_NODE": 44.4273, "ARG_OF_PERICENTER": 338.2704, "MEAN_ANOMALY": 21.803, "EPHEMERIS_TYPE": 0, "CLASSIFICATION_TYPE": "U", "NORAD_CAT_ID": 32783, "ELEMENT_SET_NO": 999, "REV_AT_EPOCH": 95244, "BSTAR": 9.0209e-05, "MEAN_MOTION_DOT": 6.16e-06, "MEAN_MOTION_DDOT": 0}, "tle": {"line1": "1 32783U 08021A   25354.85717177  .00000616  00000+0  90209-4 0  9992", "line2": "2 32783  97.7922  44.4273 0011228 338.2704  21.8030 14.78950833952442"}}, "geometry": {"type": "Point", "coordinates": [-137.39468751850143, -15.114965127937023]}}, {"type": "Feature", "properties": {"norad_id": 33320, "name": "HUANJING 1A (HJ-1A)", "group": "resource", "lat": -15.60943181101781, "lon": 160.95787859685603, "alt_km": 636.9013234741105, "timestamp": "2025-12-21T03:56:50.511263+00:00", "meta": {"OBJECT_NAME": "HUANJING 1A (HJ-1A)", "OBJECT_ID": "2008-041A", "EPOCH": "2025-12-20T20:35:33.565632", "MEAN_MOTION": 14.83417227, "ECCENTRICITY": 0.0019514, "INCLINATION": 97.6537, "RA_OF_ASC_NODE": 342.8173, "ARG_OF_PERICENTER": 8.733, "MEAN_ANOMALY": 351.422, "EPHEMERIS_TYPE": 0, "CLASSIFICATION_TYPE": "U", "NORAD_CAT_ID": 33320, "ELEMENT_SET_NO": 999, "REV_AT_EPOCH": 93196, "BSTAR": 0.00014193, "MEAN_MOTION_DOT": 1.117e-05, "MEAN_MOTION_DDOT": 0}, "tle": {"line1": "1 33320U 08041A   25354.85802738  .00001117  00000+0  14193-3 0  9994", "line2": "2 33320  97.6537 342.8173 0019514   8.7330 351.4220 14.83417227931963"}}, "geometry": {"type": "Point", "coordinates": [160.95787859685603, -15.60943181101781]}}, {"type": "Feature", "properties": {"norad_id": 33321, "name": "HUANJING 1B (HJ-1B)", "group": "resource", "lat": 38.76023042861024, "lon": -19.40054015016919, "alt_km": 591.271351493444, "timestamp": "2025-12-21T03:56:50.511272+00:00", "meta": {"OBJECT_NAME": "HUANJING 1B (HJ-1B)", "OBJECT_ID": "2008-041B", "EPOCH": "2025-12-20T21:17:39.888672", "MEAN_MOTION": 14.82842295, "ECCENTRICITY": 0.0038004, "INCLINATION": 97.6396, "RA_OF_ASC_NODE": 346.521, "ARG_OF_PERICENTER": 50.0476, "MEAN_ANOMALY": 310.4066, "EPHEMERIS_TYPE": 0, "CLASSIFICATION_TYPE": "U", "NORAD_CAT_ID": 33321, "ELEMENT_SET_NO": 999, "REV_AT_EPOCH": 93198, "BSTAR": 0.00015754, "MEAN_MOTION_DOT": 1.24e-05, "MEAN_MOTION_DDOT": 0}, "tle": {"line1": "1 33321U 08041B   25354.88726723  .00001240  00000+0  15754-3 0  9998", "line2": "2 33321  97.6396 346.5210 0038004  50.0476 310.4066 14.82842295931987"}}, "geometry": {"type": "Point", "coordinates": [-19.40054015016919, 38.76023042861024]}}, {"type": "Feature", "properties": {"norad_id": 33331, "name": "GEOEYE 1", "group": "resource", "lat": -17.707876437226766, "lon": -116.2753711283765, "alt_km": 681.7233491214774, "timestamp": "2025-12-21T03:56:50.511282+00:00", "meta": {"OBJECT_NAME": "GEOEYE 1", "OBJECT_ID": "2008-042A", "EPOCH": "2025-12-20T18:50:57.481728", "MEAN_MOTION": 14.64710026, "ECCENTRICITY": 0.0002827, "INCLINATION": 98.1243, "RA_OF_ASC_NODE": 65.9646, "ARG_OF_PERICENTER": 249.6826, "MEAN_ANOMALY": 110.4074, "EPHEMERIS_TYPE": 0, "CLASSIFICATION_TYPE": "U", "NORAD_CAT_ID": 33331, "ELEMENT_SET_NO": 999, "REV_AT_EPOCH": 92403, "BSTAR": 8.083e-05, "MEAN_MOTION_DOT": 3.83e-06, "MEAN_MOTION_DDOT": 0}, "tle": {"line1": "1 33331U 08042A   25354.78538752  .00000383  00000+0  80830-4 0  9997", "line2": "2 33331  98.1243  65.9646 0002827 249.6826 110.4074 14.64710026924030"}}, "geometry": {"type": "Point", "coordinates": [-116.2753711283765, -17.707876437226766]}}, {"type": "Feature", "properties": {"norad_id": 33396, "name": "THEOS", "group": "resource", "lat": 36.52088338900884, "lon": -120.57045983413452, "alt_km": 821.8367692172924, "timestamp": "2025-12-21T03:56:50.511292+00:00", "meta": {"OBJECT_NAME": "THEOS", "OBJECT_ID": "2008-049A", "EPOCH": "2025-12-20T20:30:46.241568", "MEAN_MOTION": 14.20098209, "ECCENTRICITY": 0.0001183, "INCLINATION": 98.5862, "RA_OF_ASC_NODE": 52.7051, "ARG_OF_PERICENTER": 95.7019, "MEAN_ANOMALY": 264.4293, "EPHEMERIS_TYPE": 0, "CLASSIFICATION_TYPE": "U", "NORAD_CAT_ID": 33396, "ELEMENT_SET_NO": 999, "REV_AT_EPOCH": 89265, "BSTAR": 6.9616e-05, "MEAN_MOTION_DOT": 1.06e-06, "MEAN_MOTION_DDOT": 0}, "tle": {"line1": "1 33396U 08049A   25354.85470187  .00000106  00000+0  69616-4 0  9992", "line2": "2 33396  98.5862  52.7051 0001183  95.7019 264.4293 14.20098209892653"}}, "geometry": {"type": "Point", "coordinates": [-120.57045983413452, 36.52088338900884]}}, {"type": "Feature", "properties": {"norad_id": 33412, "name": "COSMO-SKYMED 3", "group": "resource", "lat": -65.56905547736677, "lon": -136.62918262966633, "alt_km": 567.5565003262745, "timestamp": "2025-12-21T03:56:50.511302+00:00", "meta": {"OBJECT_NAME": "COSMO-SKYMED 3", "OBJECT_ID": "2008-054A", "EPOCH": "2025-12-20T20:16:06.395808", "MEAN_MOTION": 15.05426572, "ECCENTRICITY": 0.0016955, "INCLINATION": 97.8465, "RA_OF_ASC_NODE": 205.3732, "ARG_OF_PERICENTER": 144.7469, "MEAN_ANOMALY": 215.4882, "EPHEMERIS_TYPE": 0, "CLASSIFICATION_TYPE": "U", "NORAD_CAT_ID": 33412, "ELEMENT_SET_NO": 999, "REV_AT_EPOCH": 93009, "BSTAR": 0.00035449, "MEAN_MOTION_DOT": 5.039e-05, "MEAN_MOTION_DDOT": 0}, "tle": {"line1": "1 33412U 08054A   25354.84451847  .00005039  00000+0  35449-3 0  9994", "line2": "2 33412  97.8465 205.3732 0016955 144.7469 215.4882 15.05426572930095"}}, "geometry": {"type": "Point", "coordinates": [-136.62918262966633, -65.56905547736677]}}, {"type": "Feature", "properties": {"norad_id": 33446, "name": "YAOGAN-4", "group": "resource", "lat": -52.32985529193587, "lon": -64.43185522488079, "alt_km": 618.8374209913063, "timestamp": "2025-12-21T03:56:50.511312+00:00", "meta": {"OBJECT_NAME": "YAOGAN-4", "OBJECT_ID": "2008-061A", "EPOCH": "2025-12-20T07:07:49.061568", "MEAN_MOTION": 14.82702731, "ECCENTRICITY": 0.00131175, "INCLINATION": 97.9192, "RA_OF_ASC_NODE": 284.3224, "ARG_OF_PERICENTER": 296.7402, "MEAN_ANOMALY": 63.2469, "EPHEMERIS_TYPE": 0, "CLASSIFICATION_TYPE": "U", "NORAD_CAT_ID": 33446, "ELEMENT_SET_NO": 999, "REV_AT_EPOCH": 91915, "BSTAR": 0.000123707, "MEAN_MOTION_DOT": 9.46e-06, "MEAN_MOTION_DDOT": 0}, "tle": {"line1": "1 33446U 08061A   25354.29709562  .00000946  00000+0  12371-3 0  9999", "line2": "2 33446  97.9192 284.3224 0013117 296.7402  63.2469 14.82702731919157"}}, "geometry": {"type": "Point", "coordinates": [-64.43185522488079, -52.32985529193587]}}]}